{"spkid": "54048892", "covariance": {"epoch": "2459333.5", "labels": ["e", "q", "tp", "node", "peri", "i"], "elements": [{"label": "e", "title": "eccentricity", "value": ".2129457946335058", "units": null, "sigma": 7.34685141446856e-08, "name": "e"}, {"label": "q", "sigma": 8.59041450987134e-08, "name": "q", "title": "perihelion distance", "value": ".9367321367759951", "units": "au"}, {"label": "tp", "units": "TDB", "title": "time of perihelion passage", "value": "2459385.498061668536", "name": "tp", "sigma": 9.29212106345339e-05}, {"units": "deg", "value": "158.1470690452948", "title": "longitude of the ascending node", "sigma": 9.57354055053909e-06, "name": "om", "label": "node"}, {"name": "w", "sigma": 5.39254415854157e-05, "value": "18.43385351631513", "title": "argument of perihelion", "units": "deg", "label": "peri"}, {"label": "i", "name": "i", "sigma": 7.26439804004616e-06, "units": "deg", "title": "inclination", "value": "18.57827326831404"}], "data": [["5.397622570627875E-15", "-6.304855872838495E-15", "4.783520790523053E-12", "-2.202127751556804E-13", "2.630213331880772E-12", "1.025582914293101E-14"], ["-6.304855872838495E-15", "7.379522145140806E-15", "-5.442866359718904E-12", "2.508790240035215E-13", "-2.98679350353292E-12", "-1.612744927004598E-14"], ["4.783520790523053E-12", "-5.442866359718904E-12", "8.634351385787417E-9", "-3.988195327509825E-10", "4.94539567004569E-9", "-1.378108015297935E-10"], ["-2.202127751556804E-13", "2.508790240035215E-13", "-3.988195327509825E-10", "9.165267867281631E-11", "-2.973924159631922E-10", "-3.806958429953123E-12"], ["2.630213331880772E-12", "-2.98679350353292E-12", "4.94539567004569E-9", "-2.973924159631922E-10", "2.907953250182083E-9", "-7.230180653524533E-11"], ["1.025582914293101E-14", "-1.612744927004598E-14", "-1.378108015297935E-10", "-3.806958429953123E-12", "-7.230180653524533E-11", "5.277147888422642E-11"]]}, "elements": [{"units": null, "value": ".2129332191997498", "title": "eccentricity", "name": "e", "sigma": "7.3557E-8", "label": "e"}, {"name": "a", "sigma": "5.2546E-9", "title": "semi-major axis", "value": "1.190152801354382", "units": "au", "label": "a"}, {"label": "q", "value": ".9367297340223929", "title": "perihelion distance", "units": "au", "sigma": "8.6041E-8", "name": "q"}, {"label": "i", "units": "deg", "title": "inclination; angle with respect to x-y ecliptic plane", "value": "18.57730413841214", "name": "i", "sigma": "7.2638E-6"}, {"label": "node", "sigma": "9.5765E-6", "name": "om", "units": "deg", "value": "158.1268560380644", "title": "longitude of the ascending node"}, {"name": "w", "sigma": "5.3918E-5", "title": "argument of perihelion", "value": "18.48596603958546", "units": "deg", "label": "peri"}, {"units": "deg", "title": "mean anomaly", "value": "297.7521117307246", "sigma": "7.6872E-5", "name": "ma", "label": "M"}, {"label": "tp", "name": "tp", "sigma": ".00010165", "units": "TDB", "value": "2461282.502035657443", "title": "time of perihelion passage"}, {"label": "period", "units": "d", "title": "sidereal orbital period", "value": "474.2447279332096", "sigma": "3.1407E-6", "name": "per"}, {"title": "mean motion", "value": ".7591017438800094", "units": "deg/d", "name": "n", "sigma": "5.0272E-9", "label": "n"}, {"label": "Q", "name": "ad", "sigma": "6.3735E-9", "units": "au", "title": "aphelion distance", "value": "1.443575868686371"}], "epoch": "2461200.5"}